start=new Date('2023-05-20T00:00:00.000Z').valueOf();
sats=[{"FILE":"3912278","TLE_LINE2":"2 47898  53.0525 192.3356 0001020  71.3664 288.7435 15.06404856121670","REF_FRAME":"TEME","RCS_SIZE":"LARGE","ECCENTRICITY":"0.00010200","MEAN_ANOMALY":"288.7435","APOAPSIS":"547.905","REV_AT_EPOCH":"12167","COUNTRY_CODE":"US","MEAN_MOTION_DDOT":"0.0000000000000","MEAN_MOTION":"15.06404856","RA_OF_ASC_NODE":"192.3356","PERIOD":"95.592","SEMIMAJOR_AXIS":"6925.334","LAUNCH_DATE":"2021-03-14","EPOCH":"2023-05-19T20:12:27.323424","TLE_LINE1":"1 47898U 21021AQ  23139.84198291  .00002327  00000-0  17506-3 0  9998","GP_ID":"232158989","EPHEMERIS_TYPE":"0","ARG_OF_PERICENTER":"71.3664","CENTER_NAME":"EARTH","INCLINATION":"53.0525","ELEMENT_SET_NO":"999","OBJECT_TYPE":"PAYLOAD","DECAY_DATE":null,"MEAN_ELEMENT_THEORY":"SGP4","BSTAR":"0.00017506000000","NORAD_CAT_ID":"47898","MEAN_MOTION_DOT":"0.00002327","PERIAPSIS":"546.492","TIME_SYSTEM":"UTC","OBJECT_NAME":"STARLINK-2358","OBJECT_ID":"2021-021AQ","CLASSIFICATION_TYPE":"U","SITE":"AFETR"},{"TLE_LINE2":"2 47899  53.0476 166.9874 0001479  73.5298 286.5884 15.76738653122041","FILE":"3912278","APOAPSIS":"340.684","MEAN_ANOMALY":"286.5884","REV_AT_EPOCH":"12204","ECCENTRICITY":"0.00014790","RCS_SIZE":"LARGE","REF_FRAME":"TEME","RA_OF_ASC_NODE":"166.9874","PERIOD":"91.328","MEAN_MOTION":"15.76738653","COUNTRY_CODE":"US","MEAN_MOTION_DDOT":"0.0000000000000","ARG_OF_PERICENTER":"73.5298","CENTER_NAME":"EARTH","TLE_LINE1":"1 47899U 21021AR  23139.32217902 -.00000721  00000-0 -40196-6 0  9995","EPHEMERIS_TYPE":"0","GP_ID":"232160240","SEMIMAJOR_AXIS":"6717.825","LAUNCH_DATE":"2021-03-14","EPOCH":"2023-05-19T07:43:56.267328","ELEMENT_SET_NO":"999","INCLINATION":"53.0476","NORAD_CAT_ID":"47899","BSTAR":"-0.00000040196000","OBJECT_TYPE":"PAYLOAD","DECAY_DATE":null,"MEAN_ELEMENT_THEORY":"SGP4","OBJECT_ID":"2021-021AR","OBJECT_NAME":"STARLINK-2359","PERIAPSIS":"338.697","TIME_SYSTEM":"UTC","MEAN_MOTION_DOT":"-0.00000721","SITE":"AFETR","CLASSIFICATION_TYPE":"U"},{"APOAPSIS":"547.799","MEAN_ANOMALY":"288.6350","REV_AT_EPOCH":"12173","ECCENTRICITY":"0.00008650","RCS_SIZE":"LARGE","REF_FRAME":"TEME","TLE_LINE2":"2 47900  53.0538 192.2433 0000865  71.4733 288.6350 15.06404503121738","FILE":"3912278","ARG_OF_PERICENTER":"71.4733","CENTER_NAME":"EARTH","TLE_LINE1":"1 47900U 21021AS  23139.86315112  .00001355  00000-0  10981-3 0  9997","GP_ID":"232159963","EPHEMERIS_TYPE":"0","SEMIMAJOR_AXIS":"6925.335","LAUNCH_DATE":"2021-03-14","EPOCH":"2023-05-19T20:42:56.256768","RA_OF_ASC_NODE":"192.2433","PERIOD":"95.592","MEAN_MOTION":"15.06404503","COUNTRY_CODE":"US","MEAN_MOTION_DDOT":"0.0000000000000","NORAD_CAT_ID":"47900","BSTAR":"0.00010981000000","DECAY_DATE":null,"MEAN_ELEMENT_THEORY":"SGP4","OBJECT_TYPE":"PAYLOAD","ELEMENT_SET_NO":"999","INCLINATION":"53.0538","SITE":"AFETR","CLASSIFICATION_TYPE":"U","OBJECT_NAME":"STARLINK-2360","OBJECT_ID":"2021-021AS","PERIAPSIS":"546.601","TIME_SYSTEM":"UTC","MEAN_MOTION_DOT":"0.00001355"},{"OBJECT_ID":"2021-021AT","OBJECT_NAME":"STARLINK-2361","PERIAPSIS":"546.485","TIME_SYSTEM":"UTC","MEAN_MOTION_DOT":"0.00002843","SITE":"AFETR","CLASSIFICATION_TYPE":"U","ELEMENT_SET_NO":"999","INCLINATION":"53.0524","NORAD_CAT_ID":"47901","BSTAR":"0.00020967000000","DECAY_DATE":null,"MEAN_ELEMENT_THEORY":"SGP4","OBJECT_TYPE":"PAYLOAD","RA_OF_ASC_NODE":"182.4850","PERIOD":"95.592","MEAN_MOTION":"15.06404211","COUNTRY_CODE":"US","MEAN_MOTION_DDOT":"0.0000000000000","CENTER_NAME":"EARTH","ARG_OF_PERICENTER":"89.8088","TLE_LINE1":"1 47901U 21021AT  23139.82816765  .00002843  00000-0  20967-3 0  9992","GP_ID":"232158739","EPHEMERIS_TYPE":"0","EPOCH":"2023-05-19T19:52:33.684960","LAUNCH_DATE":"2021-03-14","SEMIMAJOR_AXIS":"6925.336","TLE_LINE2":"2 47901  53.0524 182.4850 0001033  89.8088 270.3019 15.06404211121851","FILE":"3912278","MEAN_ANOMALY":"270.3019","APOAPSIS":"547.916","REV_AT_EPOCH":"12185","ECCENTRICITY":"0.00010330","RCS_SIZE":"LARGE","REF_FRAME":"TEME"},{"CENTER_NAME":"EARTH","ARG_OF_PERICENTER":"90.5190","TLE_LINE1":"1 47902U 21021AU  23139.87791571  .00003368  00000-0  24481-3 0  9993","EPHEMERIS_TYPE":"0","GP_ID":"232159489","LAUNCH_DATE":"2021-03-14","EPOCH":"2023-05-19T21:04:11.917344","SEMIMAJOR_AXIS":"6925.320","RA_OF_ASC_NODE":"202.1760","PERIOD":"95.592","MEAN_MOTION":"15.06409475","COUNTRY_CODE":"US","MEAN_MOTION_DDOT":"0.0000000000000","APOAPSIS":"547.816","MEAN_ANOMALY":"269.5904","REV_AT_EPOCH":"12169","ECCENTRICITY":"0.00009120","RCS_SIZE":"LARGE","REF_FRAME":"TEME","TLE_LINE2":"2 47902  53.0517 202.1760 0000912  90.5190 269.5904 15.06409475121694","FILE":"3912278","SITE":"AFETR","CLASSIFICATION_TYPE":"U","OBJECT_NAME":"STARLINK-2362","OBJECT_ID":"2021-021AU","PERIAPSIS":"546.553","TIME_SYSTEM":"UTC","MEAN_MOTION_DOT":"0.00003368","NORAD_CAT_ID":"47902","BSTAR":"0.00024481000000","DECAY_DATE":null,"OBJECT_TYPE":"PAYLOAD","MEAN_ELEMENT_THEORY":"SGP4","ELEMENT_SET_NO":"999","INCLINATION":"53.0517"},{"RA_OF_ASC_NODE":"182.3585","PERIOD":"95.592","MEAN_MOTION":"15.06402623","COUNTRY_CODE":"US","MEAN_MOTION_DDOT":"0.0000000000000","CENTER_NAME":"EARTH","ARG_OF_PERICENTER":"92.4976","TLE_LINE1":"1 47903U 21021AV  23139.83458389  .00000092  00000-0  25089-4 0  9994","EPHEMERIS_TYPE":"0","GP_ID":"232159741","LAUNCH_DATE":"2021-03-14","EPOCH":"2023-05-19T20:01:48.048096","SEMIMAJOR_AXIS":"6925.341","TLE_LINE2":"2 47903  53.0526 182.3585 0001162  92.4976 267.6146 15.06402623122203","FILE":"3912278","MEAN_ANOMALY":"267.6146","APOAPSIS":"548.010","REV_AT_EPOCH":"12220","ECCENTRICITY":"0.00011620","RCS_SIZE":"LARGE","REF_FRAME":"TEME","OBJECT_ID":"2021-021AV","OBJECT_NAME":"STARLINK-2363","PERIAPSIS":"546.401","TIME_SYSTEM":"UTC","MEAN_MOTION_DOT":"0.00000092","SITE":"AFETR","CLASSIFICATION_TYPE":"U","ELEMENT_SET_NO":"999","INCLINATION":"53.0526","NORAD_CAT_ID":"47903","BSTAR":"0.00002508900000","OBJECT_TYPE":"PAYLOAD","DECAY_DATE":null,"MEAN_ELEMENT_THEORY":"SGP4"},{"ECCENTRICITY":"0.00011000","REV_AT_EPOCH":"12184","APOAPSIS":"547.964","MEAN_ANOMALY":"256.3173","REF_FRAME":"TEME","RCS_SIZE":"LARGE","TLE_LINE2":"2 47904  53.0523 182.3791 0001100 103.7938 256.3173 15.06403673121846","FILE":"3912278","EPHEMERIS_TYPE":"0","GP_ID":"232160463","TLE_LINE1":"1 47904U 21021AW  23139.83184254 -.00000188  00000-0  62368-5 0  9991","CENTER_NAME":"EARTH","ARG_OF_PERICENTER":"103.7938","SEMIMAJOR_AXIS":"6925.337","LAUNCH_DATE":"2021-03-14","EPOCH":"2023-05-19T19:57:51.195456","PERIOD":"95.592","RA_OF_ASC_NODE":"182.3791","MEAN_MOTION_DDOT":"0.0000000000000","COUNTRY_CODE":"US","MEAN_MOTION":"15.06403673","NORAD_CAT_ID":"47904","DECAY_DATE":null,"OBJECT_TYPE":"PAYLOAD","MEAN_ELEMENT_THEORY":"SGP4","BSTAR":"0.00000623680000","ELEMENT_SET_NO":"999","INCLINATION":"53.0523","SITE":"AFETR","CLASSIFICATION_TYPE":"U","OBJECT_NAME":"STARLINK-2364","OBJECT_ID":"2021-021AW","MEAN_MOTION_DOT":"-0.00000188","TIME_SYSTEM":"UTC","PERIAPSIS":"546.441"},{"ECCENTRICITY":"0.00011470","REV_AT_EPOCH":"12197","MEAN_ANOMALY":"265.5312","APOAPSIS":"548.006","REF_FRAME":"TEME","RCS_SIZE":"LARGE","TLE_LINE2":"2 47905  53.0539 182.3921 0001147  94.5808 265.5312 15.06400599121978","FILE":"3912278","GP_ID":"232159239","EPHEMERIS_TYPE":"0","TLE_LINE1":"1 47905U 21021AX  23139.82721685  .00001010  00000-0  86697-4 0  9990","ARG_OF_PERICENTER":"94.5808","CENTER_NAME":"EARTH","EPOCH":"2023-05-19T19:51:11.535840","LAUNCH_DATE":"2021-03-14","SEMIMAJOR_AXIS":"6925.347","PERIOD":"95.592","RA_OF_ASC_NODE":"182.3921","MEAN_MOTION_DDOT":"0.0000000000000","COUNTRY_CODE":"US","MEAN_MOTION":"15.06400599","NORAD_CAT_ID":"47905","MEAN_ELEMENT_THEORY":"SGP4","DECAY_DATE":null,"OBJECT_TYPE":"PAYLOAD","BSTAR":"0.00008669700000","ELEMENT_SET_NO":"999","INCLINATION":"53.0539","SITE":"AFETR","CLASSIFICATION_TYPE":"U","OBJECT_NAME":"STARLINK-2365","OBJECT_ID":"2021-021AX","MEAN_MOTION_DOT":"0.00001010","TIME_SYSTEM":"UTC","PERIAPSIS":"546.417"},{"LAUNCH_DATE":"2021-03-14","EPOCH":"2023-05-19T21:40:22.083168","SEMIMAJOR_AXIS":"6717.711","GP_ID":"232158990","EPHEMERIS_TYPE":"0","TLE_LINE1":"1 47906U 21021AY  23139.90303337  .00007720  00000-0  51005-4 0  9999","CENTER_NAME":"EARTH","ARG_OF_PERICENTER":"86.0933","MEAN_MOTION_DDOT":"0.0000000000000","COUNTRY_CODE":"US","MEAN_MOTION":"15.76778808","PERIOD":"91.325","RA_OF_ASC_NODE":"211.6926","REF_FRAME":"TEME","RCS_SIZE":"LARGE","ECCENTRICITY":"0.00011310","REV_AT_EPOCH":"12657","MEAN_ANOMALY":"274.0215","APOAPSIS":"340.336","FILE":"3912278","TLE_LINE2":"2 47906  52.9919 211.6926 0001131  86.0933 274.0215 15.76778808126574","CLASSIFICATION_TYPE":"U","SITE":"AFETR","MEAN_MOTION_DOT":"0.00007720","TIME_SYSTEM":"UTC","PERIAPSIS":"338.816","OBJECT_NAME":"STARLINK-2366","OBJECT_ID":"2021-021AY","DECAY_DATE":null,"OBJECT_TYPE":"PAYLOAD","MEAN_ELEMENT_THEORY":"SGP4","BSTAR":"0.00005100500000","NORAD_CAT_ID":"47906","INCLINATION":"52.9919","ELEMENT_SET_NO":"999"},{"ELEMENT_SET_NO":"999","INCLINATION":"53.0537","NORAD_CAT_ID":"47907","DECAY_DATE":null,"MEAN_ELEMENT_THEORY":"SGP4","OBJECT_TYPE":"PAYLOAD","BSTAR":"0.00003672400000","OBJECT_ID":"2021-021AZ","OBJECT_NAME":"STARLINK-2367","MEAN_MOTION_DOT":"0.00000266","TIME_SYSTEM":"UTC","PERIAPSIS":"546.563","SITE":"AFETR","CLASSIFICATION_TYPE":"U","TLE_LINE2":"2 47907  53.0537 202.0635 0000920  88.5083 271.6011 15.06404447121550","FILE":"3912278","ECCENTRICITY":"0.00009200","REV_AT_EPOCH":"12155","MEAN_ANOMALY":"271.6011","APOAPSIS":"547.837","REF_FRAME":"TEME","RCS_SIZE":"LARGE","PERIOD":"95.592","RA_OF_ASC_NODE":"202.0635","MEAN_MOTION_DDOT":"0.0000000000000","COUNTRY_CODE":"US","MEAN_MOTION":"15.06404447","EPHEMERIS_TYPE":"0","GP_ID":"232160241","TLE_LINE1":"1 47907U 21021AZ  23139.90372014  .00000266  00000-0  36724-4 0  9997","ARG_OF_PERICENTER":"88.5083","CENTER_NAME":"EARTH","LAUNCH_DATE":"2021-03-14","EPOCH":"2023-05-19T21:41:21.420096","SEMIMAJOR_AXIS":"6925.335"}];
